{
  "type": "FeatureCollection",
  "features": [
    {
      "type": "Feature",
      "properties": {
        "norad_id": 66617,
        "name": "STARLINK-35940",
        "group": "last-30-days",
        "lat": 37.87500681470897,
        "lon": -156.11286661232577,
        "alt_km": 441.8029862939329,
        "timestamp": "2025-12-16T17:51:09.660968+00:00",
        "meta_object_name": "STARLINK-35940",
        "meta_object_id": "2025-271A",
        "meta_epoch": "2025-12-15T22:00:01.999584",
        "meta_mean_motion": 15.395204,
        "meta_eccentricity": 0.00014614,
        "meta_inclination": 53.1592,
        "meta_ra_of_asc_node": 172.1147,
        "meta_arg_of_pericenter": 111.3271,
        "meta_mean_anomaly": 31.6718,
        "meta_ephemeris_type": 0,
        "meta_classification_type": "U",
        "meta_norad_cat_id": 66617,
        "meta_element_set_no": 999,
        "meta_rev_at_epoch": 475,
        "meta_bstar": 0.0019451682,
        "meta_mean_motion_dot": 0.00077949,
        "meta_mean_motion_ddot": 0,
        "tle_line1": "1 66617U 25271A   25349.91668981  .00077949  00000+0  19452-2 0  9992",
        "tle_line2": "2 66617  53.1592 172.1147 0001461 111.3271  31.6718 15.39520400  4755"
      },
      "geometry": {
        "type": "Point",
        "coordinates": [
          -156.11286661232577,
          37.87500681470897
        ]
      }
    },
    {
      "type": "Feature",
      "properties": {
        "norad_id": 66618,
        "name": "STARLINK-35970",
        "group": "last-30-days",
        "lat": 9.802106070181456,
        "lon": -19.467004858528384,
        "alt_km": 418.1141835882072,
        "timestamp": "2025-12-16T17:51:09.660978+00:00",
        "meta_object_name": "STARLINK-35970",
        "meta_object_id": "2025-271B",
        "meta_epoch": "2025-12-15T22:00:01.999584",
        "meta_mean_motion": 15.49255257,
        "meta_eccentricity": 8.479e-05,
        "meta_inclination": 53.1588,
        "meta_ra_of_asc_node": 171.932,
        "meta_arg_of_pericenter": 69.2522,
        "meta_mean_anomaly": 162.1332,
        "meta_ephemeris_type": 0,
        "meta_classification_type": "U",
        "meta_norad_cat_id": 66618,
        "meta_element_set_no": 999,
        "meta_rev_at_epoch": 475,
        "meta_bstar": 0.001432041,
        "meta_mean_motion_dot": 0.00079862,
        "meta_mean_motion_ddot": 0,
        "tle_line1": "1 66618U 25271B   25349.91668981  .00079862  00000+0  14320-2 0  9998",
        "tle_line2": "2 66618  53.1588 171.9320 0000847  69.2522 162.1332 15.49255257  4756"
      },
      "geometry": {
        "type": "Point",
        "coordinates": [
          -19.467004858528384,
          9.802106070181456
        ]
      }
    },
    {
      "type": "Feature",
      "properties": {
        "norad_id": 66619,
        "name": "STARLINK-35951",
        "group": "last-30-days",
        "lat": 42.72411709592537,
        "lon": -55.75169852698944,
        "alt_km": 412.63922784454644,
        "timestamp": "2025-12-16T17:51:09.660989+00:00",
        "meta_object_name": "STARLINK-35951",
        "meta_object_id": "2025-271C",
        "meta_epoch": "2025-12-15T22:00:01.999584",
        "meta_mean_motion": 15.49256708,
        "meta_eccentricity": 5.002e-05,
        "meta_inclination": 53.1591,
        "meta_ra_of_asc_node": 172.0274,
        "meta_arg_of_pericenter": 70.0764,
        "meta_mean_anomaly": 115.6512,
        "meta_ephemeris_type": 0,
        "meta_classification_type": "U",
        "meta_norad_cat_id": 66619,
        "meta_element_set_no": 999,
        "meta_rev_at_epoch": 475,
        "meta_bstar": 0.0014214401,
        "meta_mean_motion_dot": 0.00079266,
        "meta_mean_motion_ddot": 0,
        "tle_line1": "1 66619U 25271C   25349.91668981  .00079266  00000+0  14214-2 0  9999",
        "tle_line2": "2 66619  53.1591 172.0274 0000500  70.0764 115.6512 15.49256708  4750"
      },
      "geometry": {
        "type": "Point",
        "coordinates": [
          -55.75169852698944,
          42.72411709592537
        ]
      }
    },
    {
      "type": "Feature",
      "properties": {
        "norad_id": 66620,
        "name": "STARLINK-35936",
        "group": "last-30-days",
        "lat": 45.8539104760019,
        "lon": -62.48851895368203,
        "alt_km": 411.9108866434535,
        "timestamp": "2025-12-16T17:51:09.660999+00:00",
        "meta_object_name": "STARLINK-35936",
        "meta_object_id": "2025-271D",
        "meta_epoch": "2025-12-15T22:00:01.999584",
        "meta_mean_motion": 15.49257406,
        "meta_eccentricity": 0.00010297,
        "meta_inclination": 53.1591,
        "meta_ra_of_asc_node": 172.0407,
        "meta_arg_of_pericenter": 67.3574,
        "meta_mean_anomaly": 112.6206,
        "meta_ephemeris_type": 0,
        "meta_classification_type": "U",
        "meta_norad_cat_id": 66620,
        "meta_element_set_no": 999,
        "meta_rev_at_epoch": 475,
        "meta_bstar": 0.0014054769,
        "meta_mean_motion_dot": 0.00078363,
        "meta_mean_motion_ddot": 0,
        "tle_line1": "1 66620U 25271D   25349.91668981  .00078363  00000+0  14055-2 0  9991",
        "tle_line2": "2 66620  53.1591 172.0407 0001029  67.3574 112.6206 15.49257406  4758"
      },
      "geometry": {
        "type": "Point",
        "coordinates": [
          -62.48851895368203,
          45.8539104760019
        ]
      }
    },
    {
      "type": "Feature",
      "properties": {
        "norad_id": 66621,
        "name": "STARLINK-35847",
        "group": "last-30-days",
        "lat": 6.98953004157885,
        "lon": -17.306066424305033,
        "alt_km": 418.5853926335567,
        "timestamp": "2025-12-16T17:51:09.661013+00:00",
        "meta_object_name": "STARLINK-35847",
        "meta_object_id": "2025-271E",
        "meta_epoch": "2025-12-15T22:00:01.999584",
        "meta_mean_motion": 15.49254217,
        "meta_eccentricity": 7.699e-05,
        "meta_inclination": 53.1589,
        "meta_ra_of_asc_node": 171.9243,
        "meta_arg_of_pericenter": 65.4727,
        "meta_mean_anomaly": 169.4523,
        "meta_ephemeris_type": 0,
        "meta_classification_type": "U",
        "meta_norad_cat_id": 66621,
        "meta_element_set_no": 999,
        "meta_rev_at_epoch": 475,
        "meta_bstar": 0.001433731,
        "meta_mean_motion_dot": 0.00079955,
        "meta_mean_motion_ddot": 0,
        "tle_line1": "1 66621U 25271E   25349.91668981  .00079955  00000+0  14337-2 0  9993",
        "tle_line2": "2 66621  53.1589 171.9243 0000769  65.4727 169.4523 15.49254217  4750"
      },
      "geometry": {
        "type": "Point",
        "coordinates": [
          -17.306066424305033,
          6.98953004157885
        ]
      }
    },
    {
      "type": "Feature",
      "properties": {
        "norad_id": 66622,
        "name": "STARLINK-35950",
        "group": "last-30-days",
        "lat": 41.60070960827305,
        "lon": -53.66564224309994,
        "alt_km": 412.72096023694667,
        "timestamp": "2025-12-16T17:51:09.661026+00:00",
        "meta_object_name": "STARLINK-35950",
        "meta_object_id": "2025-271F",
        "meta_epoch": "2025-12-15T22:00:01.999584",
        "meta_mean_motion": 15.49301549,
        "meta_eccentricity": 9.027e-05,
        "meta_inclination": 53.1591,
        "meta_ra_of_asc_node": 172.0246,
        "meta_arg_of_pericenter": 75.7304,
        "meta_mean_anomaly": 111.8975,
        "meta_ephemeris_type": 0,
        "meta_classification_type": "U",
        "meta_norad_cat_id": 66622,
        "meta_element_set_no": 999,
        "meta_rev_at_epoch": 475,
        "meta_bstar": 0.00049635791,
        "meta_mean_motion_dot": 0.00027246,
        "meta_mean_motion_ddot": 0,
        "tle_line1": "1 66622U 25271F   25349.91668981  .00027246  00000+0  49636-3 0  9991",
        "tle_line2": "2 66622  53.1591 172.0246 0000902  75.7304 111.8975 15.49301549  4756"
      },
      "geometry": {
        "type": "Point",
        "coordinates": [
          -53.66564224309994,
          41.60070960827305
        ]
      }
    },
    {
      "type": "Feature",
      "properties": {
        "norad_id": 66623,
        "name": "STARLINK-35920",
        "group": "last-30-days",
        "lat": 51.742184079152615,
        "lon": -83.83088126552146,
        "alt_km": 434.33234421260204,
        "timestamp": "2025-12-16T17:51:09.661037+00:00",
        "meta_object_name": "STARLINK-35920",
        "meta_object_id": "2025-271G",
        "meta_epoch": "2025-12-15T22:00:01.999584",
        "meta_mean_motion": 15.4485049,
        "meta_eccentricity": 0.00015694,
        "meta_inclination": 53.1597,
        "meta_ra_of_asc_node": 172.0318,
        "meta_arg_of_pericenter": 77.1558,
        "meta_mean_anomaly": 106.3995,
        "meta_ephemeris_type": 0,
        "meta_classification_type": "U",
        "meta_norad_cat_id": 66623,
        "meta_element_set_no": 999,
        "meta_rev_at_epoch": 475,
        "meta_bstar": -0.047911193,
        "meta_mean_motion_dot": -0.02032888,
        "meta_mean_motion_ddot": 0,
        "tle_line1": "1 66623U 25271G   25349.91668981 -.02032888  00000+0 -47911-1 0  9996",
        "tle_line2": "2 66623  53.1597 172.0318 0001569  77.1558 106.3995 15.44850490  4750"
      },
      "geometry": {
        "type": "Point",
        "coordinates": [
          -83.83088126552146,
          51.742184079152615
        ]
      }
    }
  ]
}